{"type": "FeatureCollection", "features": [ {"type": "Feature", "properties": {"norad_id": 30196, "name": "FENGYUN 1C DEB", "group": "fengyun-1c-debris", "lat": 65.21517491504193, "lon": 72.37051453068666, "alt_km": 751.3708709763914, "timestamp": "2025-12-25T07:41:09.997698+00:00", "meta": {"OBJECT_NAME": "FENGYUN 1C DEB", "OBJECT_ID": "1999-025VD", "EPOCH": "2025-12-24T20:08:07.744128", "MEAN_MOTION": 14.25851055, "ECCENTRICITY": 0.00864558, "INCLINATION": 98.6395, "RA_OF_ASC_NODE": 91.1206, "ARG_OF_PERICENTER": 28.2201, "MEAN_ANOMALY": 88.8538, "EPHEMERIS_TYPE": 0, "CLASSIFICATION_TYPE": "U", "NORAD_CAT_ID": 30196, "ELEMENT_SET_NO": 999, "REV_AT_EPOCH": 98537, "BSTAR": 5.5481002e-05, "MEAN_MOTION_DOT": 9.4e-07, "MEAN_MOTION_DDOT": 0}, "tle": {"line1": "1 30196U 99025VD  25358.83897852  .00000094  00000+0  55481-4 0  9996", "line2": "2 30196  98.6395  91.1206 0086455  28.2201  88.8538 14.25851055985371"}}, "geometry": {"type": "Point", "coordinates": [72.37051453068666, 65.21517491504193]}}, {"type": "Feature", "properties": {"norad_id": 30197, "name": "FENGYUN 1C DEB", "group": "fengyun-1c-debris", "lat": 63.24192932362713, "lon": -93.02555231752123, "alt_km": 776.8013126326914, "timestamp": "2025-12-25T07:41:09.997708+00:00", "meta": {"OBJECT_NAME": "FENGYUN 1C DEB", "OBJECT_ID": "1999-025VE", "EPOCH": "2025-12-24T16:39:27.476064", "MEAN_MOTION": 14.3724111, "ECCENTRICITY": 0.00573599, "INCLINATION": 98.94, "RA_OF_ASC_NODE": 284.5154, "ARG_OF_PERICENTER": 178.9092, "MEAN_ANOMALY": 248.3303, "EPHEMERIS_TYPE": 0, "CLASSIFICATION_TYPE": "U", "NORAD_CAT_ID": 30197, "ELEMENT_SET_NO": 999, "REV_AT_EPOCH": 98658, "BSTAR": 0.00066105863, "MEAN_MOTION_DOT": 1.96e-05, "MEAN_MOTION_DDOT": 0}, "tle": {"line1": "1 30197U 99025VE  25358.69406801  .00001960  00000+0  66106-3 0  9999", "line2": "2 30197  98.9400 284.5154 0057359 178.9092 248.3303 14.37241110986589"}}, "geometry": {"type": "Point", "coordinates": [-93.02555231752123, 63.24192932362713]}}, {"type": "Feature", "properties": {"norad_id": 30198, "name": "FENGYUN 1C DEB", "group": "fengyun-1c-debris", "lat": -74.80814656040468, "lon": -82.77792862852405, "alt_km": 739.8387874323671, "timestamp": "2025-12-25T07:41:09.997719+00:00", "meta": {"OBJECT_NAME": "FENGYUN 1C DEB", "OBJECT_ID": "1999-025VF", "EPOCH": "2025-12-24T21:10:18.819264", "MEAN_MOTION": 14.50538641, "ECCENTRICITY": 0.01069109, "INCLINATION": 98.4485, "RA_OF_ASC_NODE": 129.9682, "ARG_OF_PERICENTER": 161.475, "MEAN_ANOMALY": 328.2498, "EPHEMERIS_TYPE": 0, "CLASSIFICATION_TYPE": "U", "NORAD_CAT_ID": 30198, "ELEMENT_SET_NO": 999, "REV_AT_EPOCH": 98683, "BSTAR": 0.0020553048, "MEAN_MOTION_DOT": 8.625e-05, "MEAN_MOTION_DDOT": 0}, "tle": {"line1": "1 30198U 99025VF  25358.88216226  .00008625  00000+0  20553-2 0  9991", "line2": "2 30198  98.4485 129.9682 0106910 161.4750 328.2498 14.50538641986836"}}, "geometry": {"type": "Point", "coordinates": [-82.77792862852405, -74.80814656040468]}}, {"type": "Feature", "properties": {"norad_id": 30199, "name": "FENGYUN 1C DEB", "group": "fengyun-1c-debris", "lat": 80.14199802871362, "lon": -99.17806492587172, "alt_km": 811.0967511776253, "timestamp": "2025-12-25T07:41:09.997729+00:00", "meta": {"OBJECT_NAME": "FENGYUN 1C DEB", "OBJECT_ID": "1999-025VG", "EPOCH": "2025-12-24T01:18:58.425696", "MEAN_MOTION": 14.3857682, "ECCENTRICITY": 0.00777221, "INCLINATION": 98.3835, "RA_OF_ASC_NODE": 21.5232, "ARG_OF_PERICENTER": 274.3447, "MEAN_ANOMALY": 111.2788, "EPHEMERIS_TYPE": 0, "CLASSIFICATION_TYPE": "U", "NORAD_CAT_ID": 30199, "ELEMENT_SET_NO": 999, "REV_AT_EPOCH": 98573, "BSTAR": 0.00095385874, "MEAN_MOTION_DOT": 2.979e-05, "MEAN_MOTION_DDOT": 0}, "tle": {"line1": "1 30199U 99025VG  25358.05484289  .00002979  00000+0  95386-3 0  9990", "line2": "2 30199  98.3835  21.5232 0077722 274.3447 111.2788 14.38576820985735"}}, "geometry": {"type": "Point", "coordinates": [-99.17806492587172, 80.14199802871362]}}, {"type": "Feature", "properties": {"norad_id": 30200, "name": "FENGYUN 1C DEB", "group": "fengyun-1c-debris", "lat": 51.90628962486562, "lon": -177.3133032718955, "alt_km": 708.350148214191, "timestamp": "2025-12-25T07:41:09.997739+00:00", "meta": {"OBJECT_NAME": "FENGYUN 1C DEB", "OBJECT_ID": "1999-025VH", "EPOCH": "2025-12-24T12:52:19.875360", "MEAN_MOTION": 14.22284788, "ECCENTRICITY": 0.01475118, "INCLINATION": 99.1125, "RA_OF_ASC_NODE": 193.6908, "ARG_OF_PERICENTER": 65.7524, "MEAN_ANOMALY": 295.8985, "EPHEMERIS_TYPE": 0, "CLASSIFICATION_TYPE": "U", "NORAD_CAT_ID": 30200, "ELEMENT_SET_NO": 999, "REV_AT_EPOCH": 98150, "BSTAR": 0.00013312532, "MEAN_MOTION_DOT": 2.84e-06, "MEAN_MOTION_DDOT": 0}, "tle": {"line1": "1 30200U 99025VH  25358.53634115  .00000284  00000+0  13313-3 0  9998", "line2": "2 30200  99.1125 193.6908 0147511  65.7524 295.8985 14.22284788981503"}}, "geometry": {"type": "Point", "coordinates": [-177.3133032718955, 51.90628962486562]}}, {"type": "Feature", "properties": {"norad_id": 30201, "name": "FENGYUN 1C DEB", "group": "fengyun-1c-debris", "lat": -5.204252733253503, "lon": 135.24307607053646, "alt_km": 814.7219719141503, "timestamp": "2025-12-25T07:41:09.997749+00:00", "meta": {"OBJECT_NAME": "FENGYUN 1C DEB", "OBJECT_ID": "1999-025VJ", "EPOCH": "2025-12-24T08:05:06.328320", "MEAN_MOTION": 14.22964121, "ECCENTRICITY": 0.00287475, "INCLINATION": 99.4016, "RA_OF_ASC_NODE": 133.3294, "ARG_OF_PERICENTER": 279.0871, "MEAN_ANOMALY": 80.7053, "EPHEMERIS_TYPE": 0, "CLASSIFICATION_TYPE": "U", "NORAD_CAT_ID": 30201, "ELEMENT_SET_NO": 999, "REV_AT_EPOCH": 97992, "BSTAR": 0.00043479172, "MEAN_MOTION_DOT": 9.33e-06, "MEAN_MOTION_DDOT": 0}, "tle": {"line1": "1 30201U 99025VJ  25358.33687880  .00000933  00000+0  43479-3 0  9991", "line2": "2 30201  99.4016 133.3294 0028747 279.0871  80.7053 14.22964121979925"}}, "geometry": {"type": "Point", "coordinates": [135.24307607053646, -5.204252733253503]}}, {"type": "Feature", "properties": {"norad_id": 30202, "name": "FENGYUN 1C DEB", "group": "fengyun-1c-debris", "lat": -47.06302472177989, "lon": -92.42648429295748, "alt_km": 747.9201994605546, "timestamp": "2025-12-25T07:41:09.997759+00:00", "meta": {"OBJECT_NAME": "FENGYUN 1C DEB", "OBJECT_ID": "1999-025VK", "EPOCH": "2025-12-24T05:50:33.495072", "MEAN_MOTION": 14.52550802, "ECCENTRICITY": 0.00381127, "INCLINATION": 98.6405, "RA_OF_ASC_NODE": 95.8708, "ARG_OF_PERICENTER": 23.0568, "MEAN_ANOMALY": 337.2327, "EPHEMERIS_TYPE": 0, "CLASSIFICATION_TYPE": "U", "NORAD_CAT_ID": 30202, "ELEMENT_SET_NO": 999, "REV_AT_EPOCH": 98456, "BSTAR": 0.0022095151, "MEAN_MOTION_DOT": 9.078e-05, "MEAN_MOTION_DDOT": 0}, "tle": {"line1": "1 30202U 99025VK  25358.24344323  .00009078  00000+0  22095-2 0  9993", "line2": "2 30202  98.6405  95.8708 0038112  23.0568 337.2327 14.52550802984568"}}, "geometry": {"type": "Point", "coordinates": [-92.42648429295748, -47.06302472177989]}}, {"type": "Feature", "properties": {"norad_id": 30205, "name": "FENGYUN 1C DEB", "group": "fengyun-1c-debris", "lat": -67.00119187961108, "lon": -91.71229303696016, "alt_km": 961.383098604103, "timestamp": "2025-12-25T07:41:09.997769+00:00", "meta": {"OBJECT_NAME": "FENGYUN 1C DEB", "OBJECT_ID": "1999-025VN", "EPOCH": "2025-12-24T20:41:21.591744", "MEAN_MOTION": 13.88050976, "ECCENTRICITY": 0.01213898, "INCLINATION": 98.9967, "RA_OF_ASC_NODE": 109.7618, "ARG_OF_PERICENTER": 147.0986, "MEAN_ANOMALY": 331.8715, "EPHEMERIS_TYPE": 0, "CLASSIFICATION_TYPE": "U", "NORAD_CAT_ID": 30205, "ELEMENT_SET_NO": 999, "REV_AT_EPOCH": 95806, "BSTAR": 0.00028924665, "MEAN_MOTION_DOT": 3.24e-06, "MEAN_MOTION_DDOT": 0}, "tle": {"line1": "1 30205U 99025VN  25358.86205546  .00000324  00000+0  28925-3 0  9991", "line2": "2 30205  98.9967 109.7618 0121389 147.0986 331.8715 13.88050976958064"}}, "geometry": {"type": "Point", "coordinates": [-91.71229303696016, -67.00119187961108]}}, {"type": "Feature", "properties": {"norad_id": 30206, "name": "FENGYUN 1C DEB", "group": "fengyun-1c-debris", "lat": 60.62158963802883, "lon": -16.62071733966528, "alt_km": 675.6825820660661, "timestamp": "2025-12-25T07:41:09.997780+00:00", "meta": {"OBJECT_NAME": "FENGYUN 1C DEB", "OBJECT_ID": "1999-025VP", "EPOCH": "2025-12-24T13:10:54.075072", "MEAN_MOTION": 14.49202774, "ECCENTRICITY": 0.01450899, "INCLINATION": 98.2322, "RA_OF_ASC_NODE": 357.5279, "ARG_OF_PERICENTER": 0.2713, "MEAN_ANOMALY": 359.8535, "EPHEMERIS_TYPE": 0, "CLASSIFICATION_TYPE": "U", "NORAD_CAT_ID": 30206, "ELEMENT_SET_NO": 999, "REV_AT_EPOCH": 99572, "BSTAR": 0.00055328351, "MEAN_MOTION_DOT": 2.359e-05, "MEAN_MOTION_DDOT": 0}, "tle": {"line1": "1 30206U 99025VP  25358.54923698  .00002359  00000+0  55328-3 0  9999", "line2": "2 30206  98.2322 357.5279 0145089   0.2713 359.8535 14.49202774995727"}}, "geometry": {"type": "Point", "coordinates": [-16.62071733966528, 60.62158963802883]}}, {"type": "Feature", "properties": {"norad_id": 30207, "name": "FENGYUN 1C DEB", "group": "fengyun-1c-debris", "lat": 75.84554117194793, "lon": -34.41110370147857, "alt_km": 772.9216216497198, "timestamp": "2025-12-25T07:41:09.997790+00:00", "meta": {"OBJECT_NAME": "FENGYUN 1C DEB", "OBJECT_ID": "1999-025VQ", "EPOCH": "2025-12-24T19:38:12.861024", "MEAN_MOTION": 13.79143535, "ECCENTRICITY": 0.02607575, "INCLINATION": 98.574, "RA_OF_ASC_NODE": 108.3922, "ARG_OF_PERICENTER": 115.7859, "MEAN_ANOMALY": 14.8814, "EPHEMERIS_TYPE": 0, "CLASSIFICATION_TYPE": "U", "NORAD_CAT_ID": 30207, "ELEMENT_SET_NO": 999, "REV_AT_EPOCH": 95229, "BSTAR": 0.00019176092, "MEAN_MOTION_DOT": 2.17e-06, "MEAN_MOTION_DDOT": 0}, "tle": {"line1": "1 30207U 99025VQ  25358.81820441  .00000217  00000+0  19176-3 0  9994", "line2": "2 30207  98.5740 108.3922 0260757 115.7859  14.8814 13.79143535952299"}}, "geometry": {"type": "Point", "coordinates": [-34.41110370147857, 75.84554117194793]}}]}